{
  "norad_id": 47679,
  "name": "STARLINK-2095",
  "history": [
    {
      "epoch": "2026-03-28T22:00:01.999584",
      "apogee_km": 323.8086933868017,
      "perigee_km": 314.3544977841575,
      "latitude_deg": 47.98751586366514,
      "longitude_deg": 115.90222175978124,
      "semi_major_axis_km": 6697.218595585479,
      "eccentricity": 0.00070583,
      "inclination_deg": 53.0193,
      "raan_deg": 250.9158,
      "arg_perigee_deg": 278.891,
      "mean_anomaly_deg": 276.3366,
      "mean_motion_rev_day": 15.84021421
    },
    {
      "epoch": "2026-03-29T04:00:01.999584",
      "apogee_km": 323.2689732986455,
      "perigee_km": 313.6125081964874,
      "latitude_deg": -14.305221353048383,
      "longitude_deg": 139.90222175978124,
      "semi_major_axis_km": 6696.577740747566,
      "eccentricity": 0.000721,
      "inclination_deg": 53.0195,
      "raan_deg": 249.6509,
      "arg_perigee_deg": 280.7105,
      "mean_anomaly_deg": 261.0815,
      "mean_motion_rev_day": 15.8424881
    }
  ]
}